start=new Date('2022-12-19T00:00:00.000Z').valueOf();
sats=[{"BSTAR":"0.00032179000000","EPHEMERIS_TYPE":"0","SITE":"AFETR","FILE":"3709623","RCS_SIZE":"LARGE","SEMIMAJOR_AXIS":"6925.370","MEAN_MOTION_DOT":"0.00004514","PERIOD":"95.593","OBJECT_TYPE":"PAYLOAD","EPOCH":"2022-12-18T20:17:58.282944","MEAN_ANOMALY":"307.9841","INCLINATION":"53.0525","APOAPSIS":"548.406","MEAN_MOTION":"15.06392926","REF_FRAME":"TEME","TLE_LINE1":"1 46702U 20073AJ  22352.84581346  .00004514  00000-0  32179-3 0  9993","NORAD_CAT_ID":"46702","ECCENTRICITY":"0.00016910","LAUNCH_DATE":"2020-10-18","MEAN_ELEMENT_THEORY":"SGP4","REV_AT_EPOCH":"12003","DECAY_DATE":null,"OBJECT_NAME":"STARLINK-1802","GP_ID":"220865764","ELEMENT_SET_NO":"999","PERIAPSIS":"546.064","CENTER_NAME":"EARTH","COUNTRY_CODE":"US","TLE_LINE2":"2 46702  53.0525 104.6745 0001691  52.1301 307.9841 15.06392926120038","RA_OF_ASC_NODE":"104.6745","OBJECT_ID":"2020-073AJ","TIME_SYSTEM":"UTC","ARG_OF_PERICENTER":"52.1301","CLASSIFICATION_TYPE":"U","MEAN_MOTION_DDOT":"0.0000000000000"},{"OBJECT_NAME":"STARLINK-1803","GP_ID":"220867013","DECAY_DATE":null,"RA_OF_ASC_NODE":"124.8294","CENTER_NAME":"EARTH","PERIAPSIS":"546.120","ELEMENT_SET_NO":"999","TLE_LINE2":"2 46703  53.0555 124.8294 0001630  57.9921 302.1226 15.06388354119749","COUNTRY_CODE":"US","ARG_OF_PERICENTER":"57.9921","CLASSIFICATION_TYPE":"U","MEAN_MOTION_DDOT":"0.0000000000000","OBJECT_ID":"2020-073AK","TIME_SYSTEM":"UTC","SITE":"AFETR","MEAN_MOTION_DOT":"0.00000585","SEMIMAJOR_AXIS":"6925.384","FILE":"3709623","RCS_SIZE":"LARGE","EPHEMERIS_TYPE":"0","BSTAR":"0.00005816300000","EPOCH":"2022-12-18T19:27:32.368320","OBJECT_TYPE":"PAYLOAD","MEAN_ANOMALY":"302.1226","PERIOD":"95.593","REF_FRAME":"TEME","TLE_LINE1":"1 46703U 20073AK  22352.81079130  .00000585  00000-0  58163-4 0  9990","INCLINATION":"53.0555","MEAN_MOTION":"15.06388354","APOAPSIS":"548.378","REV_AT_EPOCH":"11974","LAUNCH_DATE":"2020-10-18","ECCENTRICITY":"0.00016300","NORAD_CAT_ID":"46703","MEAN_ELEMENT_THEORY":"SGP4"},{"BSTAR":"0.00011627000000","EPHEMERIS_TYPE":"0","SITE":"AFETR","SEMIMAJOR_AXIS":"6925.345","FILE":"3709623","RCS_SIZE":"LARGE","MEAN_MOTION_DOT":"0.00001451","PERIOD":"95.592","OBJECT_TYPE":"PAYLOAD","EPOCH":"2022-12-18T15:47:16.169856","MEAN_ANOMALY":"320.7444","INCLINATION":"53.0554","APOAPSIS":"548.744","MEAN_MOTION":"15.06401286","REF_FRAME":"TEME","TLE_LINE1":"1 46704U 20073AL  22352.65782604  .00001451  00000-0  11627-3 0  9996","NORAD_CAT_ID":"46704","LAUNCH_DATE":"2020-10-18","ECCENTRICITY":"0.00022150","MEAN_ELEMENT_THEORY":"SGP4","REV_AT_EPOCH":"12000","DECAY_DATE":null,"GP_ID":"220866762","OBJECT_NAME":"STARLINK-1804","PERIAPSIS":"545.676","ELEMENT_SET_NO":"999","CENTER_NAME":"EARTH","COUNTRY_CODE":"US","TLE_LINE2":"2 46704  53.0554 105.5340 0002215  39.3705 320.7444 15.06401286120000","RA_OF_ASC_NODE":"105.5340","OBJECT_ID":"2020-073AL","TIME_SYSTEM":"UTC","ARG_OF_PERICENTER":"39.3705","MEAN_MOTION_DDOT":"0.0000000000000","CLASSIFICATION_TYPE":"U"},{"NORAD_CAT_ID":"46705","ECCENTRICITY":"0.00016530","LAUNCH_DATE":"2020-10-18","MEAN_ELEMENT_THEORY":"SGP4","REV_AT_EPOCH":"11952","INCLINATION":"53.0557","APOAPSIS":"548.409","MEAN_MOTION":"15.06383513","REF_FRAME":"TEME","TLE_LINE1":"1 46705U 20073AM  22352.73755331 -.00001086  00000-0 -54049-4 0  9995","PERIOD":"95.593","OBJECT_TYPE":"PAYLOAD","EPOCH":"2022-12-18T17:42:04.605984","MEAN_ANOMALY":"302.4883","BSTAR":"-0.00005404900000","EPHEMERIS_TYPE":"0","SITE":"AFETR","SEMIMAJOR_AXIS":"6925.399","FILE":"3709623","RCS_SIZE":"LARGE","MEAN_MOTION_DOT":"-0.00001086","OBJECT_ID":"2020-073AM","TIME_SYSTEM":"UTC","ARG_OF_PERICENTER":"57.6266","MEAN_MOTION_DDOT":"0.0000000000000","CLASSIFICATION_TYPE":"U","ELEMENT_SET_NO":"999","PERIAPSIS":"546.119","CENTER_NAME":"EARTH","COUNTRY_CODE":"US","TLE_LINE2":"2 46705  53.0557 140.1643 0001653  57.6266 302.4883 15.06383513119526","RA_OF_ASC_NODE":"140.1643","DECAY_DATE":null,"GP_ID":"220865514","OBJECT_NAME":"STARLINK-1805"},{"NORAD_CAT_ID":"46706","ECCENTRICITY":"0.00016850","LAUNCH_DATE":"2020-10-18","MEAN_ELEMENT_THEORY":"SGP4","REV_AT_EPOCH":"11975","INCLINATION":"53.0523","APOAPSIS":"548.370","MEAN_MOTION":"15.06403331","REF_FRAME":"TEME","TLE_LINE1":"1 46706U 20073AN  22352.84397139  .00004469  00000-0  31871-3 0  9999","PERIOD":"95.592","OBJECT_TYPE":"PAYLOAD","EPOCH":"2022-12-18T20:15:19.128096","MEAN_ANOMALY":"305.6525","BSTAR":"0.00031871000000","EPHEMERIS_TYPE":"0","SITE":"AFETR","SEMIMAJOR_AXIS":"6925.338","FILE":"3709623","RCS_SIZE":"LARGE","MEAN_MOTION_DOT":"0.00004469","OBJECT_ID":"2020-073AN","TIME_SYSTEM":"UTC","ARG_OF_PERICENTER":"54.4620","MEAN_MOTION_DDOT":"0.0000000000000","CLASSIFICATION_TYPE":"U","PERIAPSIS":"546.036","ELEMENT_SET_NO":"999","CENTER_NAME":"EARTH","COUNTRY_CODE":"US","TLE_LINE2":"2 46706  53.0523 124.6930 0001685  54.4620 305.6525 15.06403331119754","RA_OF_ASC_NODE":"124.6930","DECAY_DATE":null,"GP_ID":"220866263","OBJECT_NAME":"STARLINK-1807"},{"INCLINATION":"53.0563","MEAN_MOTION":"15.06393470","APOAPSIS":"548.319","REF_FRAME":"TEME","TLE_LINE1":"1 46707U 20073AP  22352.83475874  .00000026  00000-0  20634-4 0  9993","LAUNCH_DATE":"2020-10-18","ECCENTRICITY":"0.00015670","NORAD_CAT_ID":"46707","MEAN_ELEMENT_THEORY":"SGP4","REV_AT_EPOCH":"12003","BSTAR":"0.00002063400000","EPHEMERIS_TYPE":"0","SITE":"AFETR","MEAN_MOTION_DOT":"0.00000026","SEMIMAJOR_AXIS":"6925.369","FILE":"3709623","RCS_SIZE":"LARGE","PERIOD":"95.593","OBJECT_TYPE":"PAYLOAD","EPOCH":"2022-12-18T20:02:03.155136","MEAN_ANOMALY":"296.1846","CENTER_NAME":"EARTH","ELEMENT_SET_NO":"999","PERIAPSIS":"546.148","TLE_LINE2":"2 46707  53.0563 104.7424 0001567  63.9304 296.1846 15.06393470120034","COUNTRY_CODE":"US","RA_OF_ASC_NODE":"104.7424","OBJECT_ID":"2020-073AP","TIME_SYSTEM":"UTC","ARG_OF_PERICENTER":"63.9304","MEAN_MOTION_DDOT":"0.0000000000000","CLASSIFICATION_TYPE":"U","DECAY_DATE":null,"GP_ID":"220866515","OBJECT_NAME":"STARLINK-1808"},{"DECAY_DATE":null,"OBJECT_NAME":"STARLINK-1810","GP_ID":"220867261","TIME_SYSTEM":"UTC","OBJECT_ID":"2020-073AR","MEAN_MOTION_DDOT":"0.0000000000000","CLASSIFICATION_TYPE":"U","ARG_OF_PERICENTER":"68.1658","COUNTRY_CODE":"US","TLE_LINE2":"2 46709  53.0543 139.8144 0001475  68.1658 291.9487 15.06419177119539","PERIAPSIS":"546.133","ELEMENT_SET_NO":"999","CENTER_NAME":"EARTH","RA_OF_ASC_NODE":"139.8144","PERIOD":"95.591","MEAN_ANOMALY":"291.9487","OBJECT_TYPE":"PAYLOAD","EPOCH":"2022-12-18T20:16:00.187968","BSTAR":"0.00008211400000","EPHEMERIS_TYPE":"0","FILE":"3709623","RCS_SIZE":"LARGE","SEMIMAJOR_AXIS":"6925.290","MEAN_MOTION_DOT":"0.00000942","SITE":"AFETR","MEAN_ELEMENT_THEORY":"SGP4","NORAD_CAT_ID":"46709","ECCENTRICITY":"0.00014750","LAUNCH_DATE":"2020-10-18","REV_AT_EPOCH":"11953","APOAPSIS":"548.176","MEAN_MOTION":"15.06419177","INCLINATION":"53.0543","TLE_LINE1":"1 46709U 20073AR  22352.84444662  .00000942  00000-0  82114-4 0  9995","REF_FRAME":"TEME"},{"FILE":"3709623","SEMIMAJOR_AXIS":"6925.334","RCS_SIZE":"LARGE","MEAN_MOTION_DOT":"0.00003377","SITE":"AFETR","BSTAR":"0.00024546000000","EPHEMERIS_TYPE":"0","MEAN_ANOMALY":"294.9818","OBJECT_TYPE":"PAYLOAD","EPOCH":"2022-12-18T19:06:58.923648","PERIOD":"95.592","TLE_LINE1":"1 46710U 20073AS  22352.79651532  .00003377  00000-0  24546-3 0  9996","REF_FRAME":"TEME","APOAPSIS":"548.331","MEAN_MOTION":"15.06404769","INCLINATION":"53.0536","REV_AT_EPOCH":"11953","MEAN_ELEMENT_THEORY":"SGP4","NORAD_CAT_ID":"46710","LAUNCH_DATE":"2020-10-18","ECCENTRICITY":"0.00016340","GP_ID":"220866014","OBJECT_NAME":"STARLINK-1811","DECAY_DATE":null,"RA_OF_ASC_NODE":"139.9062","COUNTRY_CODE":"US","TLE_LINE2":"2 46710  53.0536 139.9062 0001634  65.1340 294.9818 15.06404769119537","PERIAPSIS":"546.067","ELEMENT_SET_NO":"999","CENTER_NAME":"EARTH","MEAN_MOTION_DDOT":"0.0000000000000","CLASSIFICATION_TYPE":"U","ARG_OF_PERICENTER":"65.1340","TIME_SYSTEM":"UTC","OBJECT_ID":"2020-073AS"},{"RA_OF_ASC_NODE":"125.0185","COUNTRY_CODE":"US","TLE_LINE2":"2 46711  53.0535 125.0185 0001321  63.5917 296.5208 15.06396946119745","ELEMENT_SET_NO":"999","PERIAPSIS":"546.308","CENTER_NAME":"EARTH","CLASSIFICATION_TYPE":"U","MEAN_MOTION_DDOT":"0.0000000000000","ARG_OF_PERICENTER":"63.5917","TIME_SYSTEM":"UTC","OBJECT_ID":"2020-073AT","GP_ID":"220865765","OBJECT_NAME":"STARLINK-1813","DECAY_DATE":null,"TLE_LINE1":"1 46711U 20073AT  22352.77024325  .00001638  00000-0  12884-3 0  9999","REF_FRAME":"TEME","APOAPSIS":"548.138","MEAN_MOTION":"15.06396946","INCLINATION":"53.0535","REV_AT_EPOCH":"11974","MEAN_ELEMENT_THEORY":"SGP4","NORAD_CAT_ID":"46711","LAUNCH_DATE":"2020-10-18","ECCENTRICITY":"0.00013210","FILE":"3709623","RCS_SIZE":"LARGE","SEMIMAJOR_AXIS":"6925.358","MEAN_MOTION_DOT":"0.00001638","SITE":"AFETR","EPHEMERIS_TYPE":"0","BSTAR":"0.00012884000000","MEAN_ANOMALY":"296.5208","OBJECT_TYPE":"PAYLOAD","EPOCH":"2022-12-18T18:29:09.016800","PERIOD":"95.592"},{"APOAPSIS":"548.411","MEAN_MOTION":"15.06384604","INCLINATION":"53.0565","TLE_LINE1":"1 46712U 20073AU  22352.68181163  .00000799  00000-0  72571-4 0  9991","REF_FRAME":"TEME","MEAN_ELEMENT_THEORY":"SGP4","NORAD_CAT_ID":"46712","ECCENTRICITY":"0.00016610","LAUNCH_DATE":"2020-10-18","REV_AT_EPOCH":"11972","BSTAR":"0.00007257100000","EPHEMERIS_TYPE":"0","RCS_SIZE":"LARGE","FILE":"3709623","SEMIMAJOR_AXIS":"6925.396","MEAN_MOTION_DOT":"0.00000799","SITE":"AFETR","PERIOD":"95.593","MEAN_ANOMALY":"294.5997","OBJECT_TYPE":"PAYLOAD","EPOCH":"2022-12-18T16:21:48.524832","COUNTRY_CODE":"US","TLE_LINE2":"2 46712  53.0565 125.5420 0001661  65.5165 294.5997 15.06384604119729","PERIAPSIS":"546.110","ELEMENT_SET_NO":"999","CENTER_NAME":"EARTH","RA_OF_ASC_NODE":"125.5420","TIME_SYSTEM":"UTC","OBJECT_ID":"2020-073AU","CLASSIFICATION_TYPE":"U","MEAN_MOTION_DDOT":"0.0000000000000","ARG_OF_PERICENTER":"65.5165","DECAY_DATE":null,"GP_ID":"220867014","OBJECT_NAME":"STARLINK-1814"}];
